NORAD_CAT_ID,OBJECT_NAME,OBJECT_TYPE,EPOCH,MEAN_MOTION,ECCENTRICITY,INCLINATION,RA_OF_ASC_NODE,ARG_OF_PERICENTER,MEAN_ANOMALY,BSTAR,MEAN_MOTION_DOT,MEAN_MOTION_DDOT,TLE_LINE0,TLE_LINE1,TLE_LINE2,SEMIMAJOR_AXIS,PERIOD,APOGEE,PERIGEE,DECAYED
53789.0,STARLINK-4666,PAYLOAD,2023-02-18 19:50:20,15.08840352,0.0001003,53.2159,238.6575,106.5636,253.5466,0.00017161,2.444e-05,0.0,0 STARLINK-4666,1 53789U 22111S   23049.82663152  .00002444  00000-0  17161-3 0  9993,2 53789  53.2159 238.6575 0001003 106.5636 253.5466 15.08840352 24582,6917.879,95.438,540.438,539.05,0.0
53789.0,STARLINK-4666,PAYLOAD,2023-02-19 13:19:35,15.08843494,0.0001043,53.2166,235.3867,102.7408,257.3701,0.00016541,2.346e-05,0.0,0 STARLINK-4666,1 53789U 22111S   23050.55527035  .00002346  00000-0  16541-3 0  9996,2 53789  53.2166 235.3867 0001043 102.7408 257.3701 15.08843494 25492,6917.87,95.437,540.456,539.013,0.0
53789.0,STARLINK-4666,PAYLOAD,2023-02-19 21:16:30,15.08849123,9.75e-05,53.2159,233.8991,98.6955,261.4148,0.00018422,2.646e-05,0.0,0 STARLINK-4666,1 53789U 22111S   23050.88646621  .00002646  00000-0  18422-3 0  9998,2 53789  53.2159 233.8991 0000975  98.6955 261.4148 15.08849123 24741,6917.853,95.437,540.392,539.043,0.0
53789.0,STARLINK-4666,PAYLOAD,2023-02-20 11:34:59,15.08840762,9.29e-05,53.2146,231.22,99.6065,260.5032,0.0001266,1.728e-05,0.0,0 STARLINK-4666,1 53789U 22111S   23051.48262987  .00001728  00000-0  12660-3 0  9992,2 53789  53.2146 231.2200 0000929  99.6065 260.5032 15.08840762 24836,6917.878,95.438,540.386,539.1,0.0
53789.0,STARLINK-4666,PAYLOAD,2023-02-21 00:18:03,15.08853603,9.01e-05,53.2154,228.8436,87.2078,272.9017,0.00043496,6.644e-05,0.0,0 STARLINK-4666,1 53789U 22111S   23052.01254408  .00006644  00000-0  43496-3 0  9994,2 53789  53.2154 228.8436 0000901  87.2078 272.9017 15.08853603 24912,6917.839,95.437,540.327,539.081,0.0
53789.0,STARLINK-4666,PAYLOAD,2023-02-21 11:25:46,15.08842422,0.0001087,53.2151,226.7608,85.1953,274.9163,0.00021155,3.081e-05,0.0,0 STARLINK-4666,1 53789U 22111S   23052.47622761  .00003081  00000-0  21155-3 0  9995,2 53789  53.2151 226.7608 0001087  85.1953 274.9163 15.08842422 24980,6917.873,95.437,540.49,538.986,0.0
53789.0,STARLINK-4666,PAYLOAD,2023-02-21 20:58:04,15.0885178,0.000105,53.2156,224.9774,79.9958,280.1153,0.00053462,8.234e-05,0.0,0 STARLINK-4666,1 53789U 22111S   23052.87366558  .00008234  00000-0  53462-3 0  9999,2 53789  53.2156 224.9774 0001050  79.9958 280.1153 15.08851780 25846,6917.844,95.437,540.436,538.983,0.0
53789.0,STARLINK-4666,PAYLOAD,2023-02-22 04:55:00,15.0884632,0.0001073,53.2159,223.4904,68.3867,291.724,0.00029912,4.477e-05,0.0,0 STARLINK-4666,1 53789U 22111S   23053.20486622  .00004477  00000-0  29912-3 0  9990,2 53789  53.2159 223.4904 0001073  68.3867 291.7240 15.08846320 25898,6917.861,95.437,540.468,538.984,0.0
53789.0,STARLINK-4666,PAYLOAD,2023-02-22 17:38:05,15.08843087,0.0001075,53.2157,221.1113,85.476,274.6355,0.00025348,3.749e-05,0.0,0 STARLINK-4666,1 53789U 22111S   23053.73478761  .00003749  00000-0  25348-3 0  9993,2 53789  53.2157 221.1113 0001075  85.4760 274.6355 15.08843087 25172,6917.871,95.437,540.48,538.992,0.0
53789.0,STARLINK-4666,PAYLOAD,2023-02-22 20:48:51,15.08847046,0.0001124,53.2163,220.5169,82.563,277.549,0.00041259,6.286e-05,0.0,0 STARLINK-4666,1 53789U 22111S   23053.86726682  .00006286  00000-0  41259-3 0  9993,2 53789  53.2163 220.5169 0001124  82.5630 277.5490 15.08847046 25993,6917.859,95.437,540.501,538.946,0.0
53789.0,STARLINK-4666,PAYLOAD,2023-02-23 11:07:20,15.08841946,0.0001248,53.2167,217.8404,84.3977,275.7158,0.00020599,2.992e-05,0.0,0 STARLINK-4666,1 53789U 22111S   23054.46342885  .00002992  00000-0  20599-3 0  9993,2 53789  53.2167 217.8404 0001248  84.3977 275.7158 15.08841946 26084,6917.874,95.437,540.603,538.876,0.0
53789.0,STARLINK-4666,PAYLOAD,2023-02-23 17:28:52,15.08849393,0.0001263,53.2168,216.651,84.5139,275.5998,0.00029938,4.481e-05,0.0,0 STARLINK-4666,1 53789U 22111S   23054.72838602  .00004481  00000-0  29938-3 0  9990,2 53789  53.2168 216.6510 0001263  84.5139 275.5998 15.08849393 26128,6917.852,95.437,540.59,538.843,0.0
53789.0,STARLINK-4666,PAYLOAD,2023-02-23 22:15:01,15.08853144,0.000126,53.2167,215.7587,84.8528,275.2607,0.00039231,5.963e-05,0.0,0 STARLINK-4666,1 53789U 22111S   23054.92710454  .00005963  00000-0  39231-3 0  9999,2 53789  53.2167 215.7587 0001260  84.8528 275.2607 15.08853144 25350,6917.84,95.437,540.577,538.834,0.0
53789.0,STARLINK-4666,PAYLOAD,2023-02-24 10:58:07,15.08841439,0.0001894,53.2169,213.3802,92.6751,267.4458,0.00013703,1.893e-05,0.0,0 STARLINK-4666,1 53789U 22111S   23055.45703069  .00001893  00000-0  13703-3 0  9996,2 53789  53.2169 213.3802 0001894  92.6751 267.4458 15.08841439 25434,6917.876,95.437,541.051,538.431,0.0
53789.0,STARLINK-4666,PAYLOAD,2023-02-24 15:44:16,15.08839058,0.0001237,53.2169,212.488,88.0797,272.0337,0.00010989,1.461e-05,0.0,0 STARLINK-4666,1 53789U 22111S   23055.65575029  .00001461  00000-0  10989-3 0  9995,2 53789  53.2169 212.4880 0001237  88.0797 272.0337 15.08839058 26264,6917.883,95.438,540.604,538.893,0.0
53789.0,STARLINK-4666,PAYLOAD,2023-02-25 02:51:58,15.08826972,9.09e-05,53.2176,210.4069,107.3214,252.7878,-0.00024123,-4.123e-05,0.0,0 STARLINK-4666,1 53789U 22111S   23056.11943283 -.00004123  00000-0 -24123-3 0  9993,2 53789  53.2176 210.4069 0000909 107.3214 252.7878 15.08826972 25538,6917.92,95.438,540.414,539.156,0.0
53789.0,STARLINK-4666,PAYLOAD,2023-02-25 12:24:18,15.08828469,8.29e-05,53.2173,208.6221,103.9468,256.1617,-7.9282e-05,-1.549e-05,0.0,0 STARLINK-4666,1 53789U 22111S   23056.51687556 -.00001549  00000-0 -79282-4 0  9991,2 53789  53.2173 208.6221 0000829 103.9468 256.1617 15.08828469 26395,6917.916,95.438,540.354,539.207,0.0
53789.0,STARLINK-4666,PAYLOAD,2023-02-25 18:45:50,15.08839377,0.0001289,53.2171,207.4347,105.8389,254.2745,0.00047449,7.272e-05,0.0,0 STARLINK-4666,1 53789U 22111S   23056.78183605  .00007272  00000-0  47449-3 0  9992,2 53789  53.2171 207.4347 0001289 105.8389 254.2745 15.08839377 25630,6917.882,95.438,540.639,538.856,0.0
53789.0,STARLINK-4666,PAYLOAD,2023-02-25 20:21:13,15.08843378,0.0001209,53.2167,207.1362,110.3302,249.782,0.00095027,0.00014869,0.0,0 STARLINK-4666,1 53789U 22111S   23056.84807632  .00014869  00000-0  95027-3 0  9997,2 53789  53.2167 207.1362 0001209 110.3302 249.7820 15.08843378 26446,6917.87,95.437,540.571,538.899,0.0
53789.0,STARLINK-4666,PAYLOAD,2023-02-26 12:15:04,15.08856704,0.0001126,53.2162,204.1628,100.9965,259.1154,0.00086347,0.00013487,0.0,0 STARLINK-4666,1 53789U 22111S   23057.51047340  .00013487  00000-0  86347-3 0  9994,2 53789  53.2162 204.1628 0001126 100.9965 259.1154 15.08856704 26544,6917.829,95.436,540.473,538.915,0.0
53789.0,STARLINK-4666,PAYLOAD,2023-02-26 18:36:37,15.08870232,0.0001142,53.2163,202.9735,99.0948,261.0174,0.0011225,0.00017636,0.0,0 STARLINK-4666,1 53789U 22111S   23057.77542841  .00017636  00000-0  11225-2 0  9990,2 53789  53.2163 202.9735 0001142  99.0948 261.0174 15.08870232 25788,6917.788,95.436,540.443,538.863,0.0
53789.0,STARLINK-4666,PAYLOAD,2023-02-26 20:12:00,15.08872701,0.0001129,53.2162,202.676,98.3108,261.8012,0.0011218,0.00017626,0.0,0 STARLINK-4666,1 53789U 22111S   23057.84166681  .00017626  00000-0  11218-2 0  9993,2 53789  53.2162 202.6760 0001129  98.3108 261.8012 15.08872701 26599,6917.78,95.435,540.426,538.864,0.0
53789.0,STARLINK-4666,PAYLOAD,2023-02-27 02:33:32,15.08850064,0.0001294,53.2162,201.4873,79.0142,281.0995,0.00015434,2.17e-05,0.0,0 STARLINK-4666,1 53789U 22111S   23058.10663010  .00002170  00000-0  15434-3 0  9994,2 53789  53.2162 201.4873 0001294  79.0142 281.0995 15.08850064 25836,6917.85,95.437,540.61,538.819,0.0
53789.0,STARLINK-4666,PAYLOAD,2023-02-27 18:27:23,15.08896398,0.0001073,53.2158,198.5133,74.3472,285.7639,0.0022872,0.00036357,0.0,0 STARLINK-4666,1 53789U 22111S   23058.76901893  .00036357  00000-0  22872-2 0  9997,2 53789  53.2158 198.5133 0001073  74.3472 285.7639 15.08896398 25932,6917.708,95.434,540.315,538.831,0.0
53789.0,STARLINK-4666,PAYLOAD,2023-02-28 02:24:19,15.08835512,5.65e-05,53.2156,197.0268,102.5792,257.5263,-0.00047779,-7.882e-05,0.0,0 STARLINK-4666,1 53789U 22111S   23059.10022567 -.00007882  00000-0 -47779-3 0  9995,2 53789  53.2156 197.0268 0000565 102.5792 257.5263 15.08835512 25983,6917.894,95.438,540.15,539.368,0.0
53789.0,STARLINK-4666,PAYLOAD,2023-02-28 13:32:01,15.08827222,7.45e-05,53.2154,194.9451,121.7784,238.328,0.0013149,0.00020693,0.0,0 STARLINK-4666,1 53789U 22111S   23059.56391047  .00020693  00000-0  13149-2 0  9993,2 53789  53.2154 194.9451 0000745 121.7784 238.3280 15.08827222 26857,6917.919,95.438,540.3,539.269,0.0
53789.0,STARLINK-4666,PAYLOAD,2023-02-28 15:07:25,15.08839318,0.0001081,53.2153,194.6479,89.8048,270.3068,0.0016258,0.00025681,0.0,0 STARLINK-4666,1 53789U 22111S   23059.63015142  .00025681  00000-0  16258-2 0  9996,2 53789  53.2153 194.6479 0001081  89.8048 270.3068 15.08839318 26864,6917.882,95.438,540.495,539.0,0.0
53789.0,STARLINK-4666,PAYLOAD,2023-03-01 02:15:07,15.08833031,0.0001471,53.2154,192.5663,73.4235,286.6919,0.0012913,0.00020319,0.0,0 STARLINK-4666,1 53789U 22111S   23060.09383819  .00020319  00000-0  12913-2 0  9994,2 53789  53.2154 192.5663 0001471  73.4235 286.6919 15.08833031 26138,6917.902,95.438,540.784,538.749,0.0
53789.0,STARLINK-4666,PAYLOAD,2023-03-01 08:36:40,15.08814523,9.4e-05,53.216,191.3763,91.4888,268.6212,0.00014133,1.961e-05,0.0,0 STARLINK-4666,1 53789U 22111S   23060.35880067  .00001961  00000-0  14133-3 0  9999,2 53789  53.2160 191.3763 0000940  91.4888 268.6212 15.08814523 26172,6917.958,95.439,540.474,539.173,0.0
53789.0,STARLINK-4666,PAYLOAD,2023-03-01 13:22:50,15.0882421,0.0001707,53.2153,190.4845,85.3589,274.7598,0.00054995,8.472e-05,0.0,0 STARLINK-4666,1 53789U 22111S   23060.55752520  .00008472  00000-0  54995-3 0  9997,2 53789  53.2153 190.4845 0001707  85.3589 274.7598 15.08824210 26200,6917.929,95.439,540.975,538.613,0.0
